{
  "type": "FeatureCollection",
  "features": [
    {
      "type": "Feature",
      "properties": {
        "norad_id": 35080,
        "name": "IRIDIUM 33 DEB",
        "group": "iridium-33-debris",
        "lat": -0.9505887326855874,
        "lon": 45.44751070685821,
        "alt_km": 634.6964216005726,
        "timestamp": "2025-12-27T02:10:16.574446+00:00",
        "meta_object_name": "IRIDIUM 33 DEB",
        "meta_object_id": "1997-051PF",
        "meta_epoch": "2025-12-26T03:34:24.926304",
        "meta_mean_motion": 14.87541641,
        "meta_eccentricity": 0.00577697,
        "meta_inclination": 86.209,
        "meta_ra_of_asc_node": 45.9614,
        "meta_arg_of_pericenter": 133.1259,
        "meta_mean_anomaly": 227.4819,
        "meta_ephemeris_type": 0,
        "meta_classification_type": "U",
        "meta_norad_cat_id": 35080,
        "meta_element_set_no": 999,
        "meta_rev_at_epoch": 69887,
        "meta_bstar": 0.0052116304,
        "meta_mean_motion_dot": 0.00049051,
        "meta_mean_motion_ddot": 0,
        "tle_line1": "1 35080U 97051PF  25360.14889961  .00049051  00000+0  52116-2 0  9995",
        "tle_line2": "2 35080  86.2090  45.9614 0057769 133.1259 227.4819 14.87541641698872"
      },
      "geometry": {
        "type": "Point",
        "coordinates": [
          45.44751070685821,
          -0.9505887326855874
        ]
      }
    },
    {
      "type": "Feature",
      "properties": {
        "norad_id": 35297,
        "name": "IRIDIUM 33 DEB",
        "group": "iridium-33-debris",
        "lat": 77.38949958411546,
        "lon": -139.78155521658942,
        "alt_km": 721.2864120450231,
        "timestamp": "2025-12-27T02:10:16.574456+00:00",
        "meta_object_name": "IRIDIUM 33 DEB",
        "meta_object_id": "1997-051PM",
        "meta_epoch": "2025-12-26T10:44:46.667040",
        "meta_mean_motion": 14.4521519,
        "meta_eccentricity": 0.0018076,
        "meta_inclination": 86.3846,
        "meta_ra_of_asc_node": 56.909,
        "meta_arg_of_pericenter": 100.7298,
        "meta_mean_anomaly": 259.594,
        "meta_ephemeris_type": 0,
        "meta_classification_type": "U",
        "meta_norad_cat_id": 35297,
        "meta_element_set_no": 999,
        "meta_rev_at_epoch": 70624,
        "meta_bstar": 0.00060666,
        "meta_mean_motion_dot": 2.149e-05,
        "meta_mean_motion_ddot": 0,
        "tle_line1": "1 35297U 97051PM  25360.44776235  .00002149  00000+0  60666-3 0  9994",
        "tle_line2": "2 35297  86.3846  56.9090 0018076 100.7298 259.5940 14.45215190706246"
      },
      "geometry": {
        "type": "Point",
        "coordinates": [
          -139.78155521658942,
          77.38949958411546
        ]
      }
    },
    {
      "type": "Feature",
      "properties": {
        "norad_id": 35299,
        "name": "IRIDIUM 33 DEB",
        "group": "iridium-33-debris",
        "lat": 5.743565080717988,
        "lon": -153.43652930087183,
        "alt_km": 776.8132084940835,
        "timestamp": "2025-12-27T02:10:16.574466+00:00",
        "meta_object_name": "IRIDIUM 33 DEB",
        "meta_object_id": "1997-051PP",
        "meta_epoch": "2025-12-26T08:45:22.328064",
        "meta_mean_motion": 14.40928919,
        "meta_eccentricity": 0.0058454,
        "meta_inclination": 86.2878,
        "meta_ra_of_asc_node": 27.2535,
        "meta_arg_of_pericenter": 58.9388,
        "meta_mean_anomaly": 312.8971,
        "meta_ephemeris_type": 0,
        "meta_classification_type": "U",
        "meta_norad_cat_id": 35299,
        "meta_element_set_no": 999,
        "meta_rev_at_epoch": 86527,
        "meta_bstar": 0.00083606,
        "meta_mean_motion_dot": 2.757e-05,
        "meta_mean_motion_ddot": 0,
        "tle_line1": "1 35299U 97051PP  25360.36484176  .00002757  00000+0  83606-3 0  9991",
        "tle_line2": "2 35299  86.2878  27.2535 0058454  58.9388 312.8971 14.40928919865276"
      },
      "geometry": {
        "type": "Point",
        "coordinates": [
          -153.43652930087183,
          5.743565080717988
        ]
      }
    },
    {
      "type": "Feature",
      "properties": {
        "norad_id": 35480,
        "name": "IRIDIUM 33 DEB",
        "group": "iridium-33-debris",
        "lat": 12.262499817686626,
        "lon": 19.48246408855627,
        "alt_km": 720.4280493421502,
        "timestamp": "2025-12-27T02:10:16.574477+00:00",
        "meta_object_name": "IRIDIUM 33 DEB",
        "meta_object_id": "1997-051QA",
        "meta_epoch": "2025-12-26T19:29:20.804640",
        "meta_mean_motion": 14.49821486,
        "meta_eccentricity": 0.0015772,
        "meta_inclination": 86.3559,
        "meta_ra_of_asc_node": 18.8095,
        "meta_arg_of_pericenter": 63.8067,
        "meta_mean_anomaly": 296.4757,
        "meta_ephemeris_type": 0,
        "meta_classification_type": "U",
        "meta_norad_cat_id": 35480,
        "meta_element_set_no": 999,
        "meta_rev_at_epoch": 87235,
        "meta_bstar": 0.00059301,
        "meta_mean_motion_dot": 2.31e-05,
        "meta_mean_motion_ddot": 0,
        "tle_line1": "1 35480U 97051QA  25360.81204635  .00002310  00000+0  59301-3 0  9993",
        "tle_line2": "2 35480  86.3559  18.8095 0015772  63.8067 296.4757 14.49821486872353"
      },
      "geometry": {
        "type": "Point",
        "coordinates": [
          19.48246408855627,
          12.262499817686626
        ]
      }
    },
    {
      "type": "Feature",
      "properties": {
        "norad_id": 35484,
        "name": "IRIDIUM 33 DEB",
        "group": "iridium-33-debris",
        "lat": -20.215840348961837,
        "lon": 167.37093701154683,
        "alt_km": 582.7828248848391,
        "timestamp": "2025-12-27T02:10:16.574487+00:00",
        "meta_object_name": "IRIDIUM 33 DEB",
        "meta_object_id": "1997-051QE",
        "meta_epoch": "2025-12-23T05:59:10.354560",
        "meta_mean_motion": 14.99264182,
        "meta_eccentricity": 0.00245796,
        "meta_inclination": 86.3609,
        "meta_ra_of_asc_node": 347.8264,
        "meta_arg_of_pericenter": 91.5392,
        "meta_mean_anomaly": 268.8655,
        "meta_ephemeris_type": 0,
        "meta_classification_type": "U",
        "meta_norad_cat_id": 35484,
        "meta_element_set_no": 999,
        "meta_rev_at_epoch": 62173,
        "meta_bstar": 0.0029536278,
        "meta_mean_motion_dot": 0.00036413,
        "meta_mean_motion_ddot": 0,
        "tle_line1": "1 35484U 97051QE  25357.24942540  .00036413  00000+0  29536-2 0  9991",
        "tle_line2": "2 35484  86.3609 347.8264 0024579  91.5392 268.8655 14.99264182621733"
      },
      "geometry": {
        "type": "Point",
        "coordinates": [
          167.37093701154683,
          -20.215840348961837
        ]
      }
    },
    {
      "type": "Feature",
      "properties": {
        "norad_id": 35488,
        "name": "IRIDIUM 33 DEB",
        "group": "iridium-33-debris",
        "lat": -31.88990814509789,
        "lon": 116.55288984308021,
        "alt_km": 640.345373932214,
        "timestamp": "2025-12-27T02:10:16.574497+00:00",
        "meta_object_name": "IRIDIUM 33 DEB",
        "meta_object_id": "1997-051QJ",
        "meta_epoch": "2025-12-24T19:47:30.471936",
        "meta_mean_motion": 14.83358408,
        "meta_eccentricity": 0.00280046,
        "meta_inclination": 86.3249,
        "meta_ra_of_asc_node": 295.3058,
        "meta_arg_of_pericenter": 2.7873,
        "meta_mean_anomaly": 357.3501,
        "meta_ephemeris_type": 0,
        "meta_classification_type": "U",
        "meta_norad_cat_id": 35488,
        "meta_element_set_no": 999,
        "meta_rev_at_epoch": 88445,
        "meta_bstar": 0.0017384526,
        "meta_mean_motion_dot": 0.00014384,
        "meta_mean_motion_ddot": 0,
        "tle_line1": "1 35488U 97051QJ  25358.82465824  .00014384  00000+0  17385-2 0  9997",
        "tle_line2": "2 35488  86.3249 295.3058 0028004   2.7873 357.3501 14.83358408884452"
      },
      "geometry": {
        "type": "Point",
        "coordinates": [
          116.55288984308021,
          -31.88990814509789
        ]
      }
    },
    {
      "type": "Feature",
      "properties": {
        "norad_id": 35616,
        "name": "IRIDIUM 33 DEB",
        "group": "iridium-33-debris",
        "lat": -53.43150695440853,
        "lon": -25.716992191298196,
        "alt_km": 637.5359552484133,
        "timestamp": "2025-12-27T02:10:16.574507+00:00",
        "meta_object_name": "IRIDIUM 33 DEB",
        "meta_object_id": "1997-051QN",
        "meta_epoch": "2025-12-21T16:46:45.287328",
        "meta_mean_motion": 14.82015021,
        "meta_eccentricity": 0.00114093,
        "meta_inclination": 86.3545,
        "meta_ra_of_asc_node": 341.6744,
        "meta_arg_of_pericenter": 134.0095,
        "meta_mean_anomaly": 226.2069,
        "meta_ephemeris_type": 0,
        "meta_classification_type": "U",
        "meta_norad_cat_id": 35616,
        "meta_element_set_no": 999,
        "meta_rev_at_epoch": 87707,
        "meta_bstar": 0.0013754653,
        "meta_mean_motion_dot": 0.00010957,
        "meta_mean_motion_ddot": 0,
        "tle_line1": "1 35616U 97051QN  25355.69913527  .00010957  00000+0  13755-2 0  9999",
        "tle_line2": "2 35616  86.3545 341.6744 0011409 134.0095 226.2069 14.82015021877070"
      },
      "geometry": {
        "type": "Point",
        "coordinates": [
          -25.716992191298196,
          -53.43150695440853
        ]
      }
    }
  ]
}